UNKNOWN                 
1 82597U          26086.67111465  .00001861  00000+0  63213-3 0  9997
2 82597  66.7692 231.5828 0097388 234.3363 124.8644 14.36197471644047
UNKNOWN                 
1 82617U          26087.60594128  .00000794  00000+0  21224-3 0  9995
2 82617  74.0279  44.8977 0039097 320.4653  39.3656 14.49572099652167
UNKNOWN                 
1 82627U          26085.68438790  .00000440  00000+0  11211-2 0  9996
2 82627  82.4788 174.5099 0018428 191.4493 321.9106 13.16464723592503
UNKNOWN                 
1 82642U          26087.49844800  .00002305  00000+0  12789-2 0  9990
2 82642  98.9727   2.3541 0134776 301.8524  56.9585 14.07713992631014
UNKNOWN                 
1 82683U          26084.61672622  .00001201  00000+0  46216-3 0  9994
2 82683  98.1567 150.8000 0211229  94.7547 267.7787 14.20444327476879
UNKNOWN                 
1 82693U          26084.69236372  .00002379  00000+0  27452-2 0  9998
2 82693 100.5285  62.7057 0041529 123.6290 236.8825 13.70110135567859
UNKNOWN                 
1 82698U          26080.99311201  .00000634  00000+0  41623-3 0  9996
2 82698  61.6077 244.5581 0689281 326.6082  29.3177 13.29896686551572
UNKNOWN                 
1 82708U          26079.30619149  .00000656  00000+0  26577-2 0  9997
2 82708 102.1625 296.9119 0062446  84.3928 276.4281 12.90760488536107
UNKNOWN                 
1 82729U          26082.91857344 -.00000174  00000+0 -42226-3 0  9999
2 82729  67.9721 330.9131 0836249 301.8070  50.4104 12.17870501547522
UNKNOWN                 
1 82739U          26087.39801659  .00000544  00000+0  48075-3 0  9992
2 82739  99.0963 245.1720 0170028  10.7511  18.7511 13.82995564620712
UNKNOWN                 
1 82741U          26087.14598560  .00001287  00000+0  14351-2 0  9996
2 82741 102.8421 161.5469 0194635  31.5190 329.7433 13.66535968611473
UNKNOWN                 
1 82783U          26084.59211162  .00000182  00000+0  50946-3 0  9992
2 82783  90.3459  41.4569 0019213 189.3652 170.7120 13.09111576517813
